CIC_OEM_VERS = 2.0
CREATION_DATE = 2025-02-06T15:17:12.737870
ORIGINATOR = ISAE-SUPAERO


META_START
OBJECT_NAME = Sat
OBJECT_ID = Sat
CENTER_NAME = Earth
REF_FRAME = EME2000
TIME_SYSTEM = UTC
START_TIME = 2025-02-06T00:00:00.000
USEABLE_START_TIME = 2025-02-06T00:00:00.000
USEABLE_STOP_TIME = 2025-02-06T23:55:00.000
STOP_TIME = 2025-02-06T23:55:00.000
INTERPOLATION = lagrange
INTERPOLATION_DEGREE = 5
META_STOP



60712 0.0 -3329.6077999999998 3078.1187000000004 5172.2429 -3.0818045 4.9304782 -4.9088342
60712 420.0 -4225.3385 4749.3161 2634.8184 -1.1060432 2.8834019 -6.9560573
60712 840.0 -4225.2979000000005 5413.625400000001 -462.56913000000003 1.1063252000000001 0.22273168000000002 -7.5263048
60712 1260.0 -3326.4671000000003 4925.914900000001 -3459.2009 3.0850136000000004 -2.4849924999999997 -6.5024443000000005
60712 1680.0 -1721.1033 3392.6267000000003 -5722.269 4.4106053 -4.6675388 -4.0940583
60712 2100.0 249.787 1137.6615 -6761.3244 4.803929699999999 -5.8649366 -0.8110950800000001
60712 2520.0 2168.5598999999997 -1358.4002 -6368.2987 4.169107 -5.8073175 2.646909
60712 2940.0 3626.5283 -3565.9761000000003 -4617.5021 2.6479000999999998 -4.5146507 5.5390079
60712 3360.0 4313.423 -5015.3553 -1882.1228 0.5641728100000001 -2.2626061 7.2498320000000005
60712 3780.0 4084.0987999999998 -5399.474200000001 1254.3962 -1.6353674 0.46518824000000003 7.4150862
60712 4200.0 2989.7663 -4640.094599999999 4124.8508 -3.4808041 3.0840897000000003 6.008415200000001
60712 4620.0 1264.6791 -2902.0178 6123.6285 -4.5857504 5.0425905 3.3403904000000004
60712 5040.0 -726.21151 -554.2260699999999 6832.8426 -4.7252704 5.9374167 -0.022890360000000002
60712 5460.0 -2564.7444 1909.7917 6104.8566 -3.8728597000000002 5.5861643999999995 -3.382832
60712 5880.0 -3863.9349 3972.0479 4090.2367999999997 -2.2014429 4.0567121 -6.0401682
60712 6300.0 -4346.959900000001 5195.1484 1209.9108999999999 -0.055765574000000005 1.6609399 -7.4285661
60712 6720.0 -3907.8021000000003 5315.9955 -1927.3119 2.1102134 -1.097242 -7.2393569
60712 7140.0 -2637.2401 4305.7925000000005 -4653.1738 3.8305582 -3.6263062 -5.5046394
60712 7560.0 -805.21097 2378.8999 -6385.6652 4.7351773 -5.3828451 -2.5958681
60712 7980.0 1197.6676000000002 -53.486136 -6756.053 4.6323014 -5.9932503 0.86271556
60712 8400.0 2946.3874 -2474.9242000000004 -5686.9314 3.5446554999999997 -5.3295547 4.1373773
60712 8820.0 4068.84 -4370.384099999999 -3405.2644 1.7037294 -3.5331736 6.5303221
60712 9240.0 4326.6962 -5337.168 -397.8523 -0.49738602 -0.98805859 7.5305771
60712 9660.0 3666.7752 -5171.875900000001 2694.4802000000004 -2.5869892 1.7590586000000001 6.929051800000001
60712 10080.0 2231.7907 -3913.4995 5216.3593 -4.122223600000001 4.123635 4.86505
60712 10500.0 326.99628 -1831.4261999999999 6637.885700000001 -4.7856232 5.6128655 1.7842315000000002
60712 10920.0 -1646.5089 635.05672 6662.7875 -4.4441244 5.9224965 -1.6680345
60712 11340.0 -3274.2387000000003 2968.0164 5285.2115 -3.1674352 4.9873896 -4.776042
60712 11760.0 -4212.0211 4675.385 2791.4017000000003 -1.2159194 2.9945947000000004 -6.8866023
60712 12180.0 -4257.9885 5392.6377999999995 -294.30421 1.0025839 0.35740478000000003 -7.5419403
60712 12600.0 -3399.0122 4963.7714000000005 -3317.062 3.0142304 -2.3634181 -6.5902092
60712 13020.0 -1816.4284 3478.1877000000004 -5631.6608 4.3851357 -4.5823928 -4.23132
60712 13440.0 152.70569 1252.4179 -6744.4905 4.822058200000001 -5.8246572 -0.97227936
60712 13860.0 2089.3967 -1239.9089 -6418.3263 4.2335367999999995 -5.8284397 2.4947393000000004
60712 14280.0 3581.8181 -3468.5875 -4723.7611 2.7444901 -4.592149099999999 5.4284845
60712 14700.0 4312.4264 -4959.5373 -2021.6698000000001 0.67188934 -2.3793392 7.2046999
60712 15120.0 4126.5695000000005 -5396.505700000001 1111.4955 -1.5398889999999998 0.33493533000000003 7.4443281
60712 15540.0 3066.1486 -4689.781 4008.7653999999998 -3.4175827 2.9679766 6.10448
60712 15960.0 1358.4698999999998 -2993.2288 6058.4185 -4.5673729000000005 4.9642657 3.4822130000000002
60712 16380.0 -634.85114 -667.5225300000001 6831.7491 -4.7549484 5.912315899999999 0.13532697
60712 16800.0 -2495.0211 1798.202 6168.0661 -3.9444831 5.6193168 -3.2400753
60712 17220.0 -3830.7517000000003 3885.7701 4204.941 -2.3008935999999998 4.1422107 -5.942121
60712 17640.0 -4357.929099999999 5153.0455 1352.3852 -0.16271171 1.7819500000000001 -7.396775300000001
60712 18060.0 -3961.2912 5327.8413 -1787.1082 2.0184138000000003 -0.96604355 -7.282045600000001
60712 18480.0 -2722.4815 4369.8766 -4545.4177 3.7740297999999997 -3.5134016000000003 -5.6137558
60712 18900.0 -904.3790500000001 2482.0716 -6333.8682 4.7266463000000005 -5.313098500000001 -2.748208
60712 19320.0 1105.8303 66.56722400000001 -6771.0763 4.673924 -5.9825352999999994 0.70248532
60712 19740.0 2880.8017999999997 -2362.7725 -5765.5738 3.6266007 -5.3789709000000006 4.0035307
60712 20160.0 4043.0774 -4289.872 -3529.2723 1.8076657 -3.631327 6.4521723
60712 20580.0 4345.0797999999995 -5304.2045 -539.92511 -0.39505227000000004 -1.1119417 7.5239517
60712 21000.0 3723.8628 -5191.5606 2564.7556 -2.5083083000000004 1.6368626 6.9926886
60712 21420.0 2314.1622 -3979.7884 5125.504400000001 -4.0825963000000005 4.0278670000000005 4.9828102
60712 21840.0 416.51651000000004 -1929.1138 6603.580599999999 -4.7914982 5.5613612 1.931154
60712 22260.0 -1568.7617 526.7959000000001 6691.3305 -4.4933046 5.9244357 -1.5204824000000001
60712 22680.0 -3224.7152 2872.0056 5370.9073 -3.2505411 5.0430586 -4.6559444999999995
60712 23100.0 -4201.880700000001 4612.551 2917.3693 -1.3174213 3.094687 -6.8187385
60712 23520.0 -4290.808099999999 5377.892900000001 -153.9066 0.90294823 0.48258118000000005 -7.542796
60712 23940.0 -3469.4865 5002.3146 -3192.2142000000003 2.9379825 -2.2395435000000004 -6.6625369
60712 24360.0 -1910.7658000000001 3563.5362999999998 -5550.086700000001 4.3501161 -4.487788800000001 -4.361352
60712 24780.0 54.142622 1367.2129 -6724.8006 4.8373075 -5.7816092 -1.1313801
60712 25200.0 2006.5495 -1117.4582 -6471.0455 4.2936133 -5.8431984 2.3397067000000003
60712 25620.0 3532.6749 -3365.5636 -4834.9586 2.8403282 -4.6667677 5.3130118
60712 26040.0 4307.2266 -4897.6025 -2167.7251 0.7809104 -2.4961808999999997 7.1575500000000005
60712 26460.0 4165.2221 -5387.4845000000005 962.0451700000001 -1.4443417 0.20502952 7.475244200000001
60712 26880.0 3138.0088 -4732.4789 3886.9769 -3.357412 2.8556555 6.2022684
60712 27300.0 1445.8781999999999 -3074.9888 5987.1702000000005 -4.5535026 4.8923912000000005 3.6202014
60712 27720.0 -551.3093100000001 -768.9376 6821.4798 -4.786249 5.8914199 0.28275774000000004
60712 28140.0 -2432.6137000000003 1698.9603000000002 6216.831 -4.0118576 5.6499987 -3.1104406
60712 28560.0 -3801.9230000000002 3809.2019 4300.4969 -2.3909443 4.2178358 -5.852066700000001
60712 28980.0 -4369.1044 5115.7238 1474.6144 -0.2598234 1.8899635000000001 -7.3620296
60712 29400.0 -4011.7659 5339.6422 -1663.6726 1.9315638 -0.8438799100000001 -7.312164300000001
60712 29820.0 -2804.0896000000002 4431.7690999999995 -4448.3194 3.7155027 -3.4013705 -5.7078397999999995
60712 30240.0 -1001.8901999999999 2584.302 -6287.3256 4.7113574 -5.2371283 -2.890834
60712 30660.0 1012.6717 189.08923000000001 -6790.1016 4.7085166 -5.9626974 0.54034567
60712 31080.0 2813.603 -2247.1011000000003 -5851.389 3.7036083 -5.4204598 3.8617402000000003
60712 31500.0 4020.8566 -4209.6763 -3672.1072999999997 1.9102213 -3.7230977 6.3533789
60712 31920.0 4368.769200000001 -5271.9274000000005 -708.87122 -0.28390855 -1.2433667000000002 7.5021281
60712 32340.0 3790.4205 -5216.4577 2405.1035 -2.4193339000000003 1.5015182 7.0573155
60712 32760.0 2408.8501 -4055.6025 5008.0195 -4.0402526 3.9257009 5.1139746
60712 33180.0 517.44586 -2036.501 6548.4856 -4.8040398 5.515504 2.089899
60712 33600.0 -1483.3763999999999 412.9809 6701.4377 -4.5521761 5.9387679 -1.3747963
60712 34020.0 -3170.5504 2775.0267000000003 5434.067900000001 -3.3369824 5.106289 -4.5521192
60712 34440.0 -4185.8404 4549.0466 3011.8567000000003 -1.4109865 3.1889122000000003 -6.7702441
60712 34860.0 -4312.5953 5357.3013 -50.741932 0.81862691 0.5899428000000001 -7.549209100000001
60712 35280.0 -3522.8531000000003 5027.0729 -3102.5939 2.8735468 -2.1333597 -6.7200604
60712 35700.0 -1984.1529 3628.1904 -5493.3647 4.3166837 -4.4006341 -4.4648251000000005
60712 36120.0 -25.534473000000002 1461.6276 -6719.0606 4.8415858 -5.7296643000000005 -1.2674807000000001
60712 36540.0 1938.5619 -1013.9115 -6520.8781 4.343001500000001 -5.846481600000001 2.1938595999999997
60712 36960.0 3493.0982000000004 -3275.1875 -4941.3945 2.9260734000000004 -4.7275172 5.1923276
60712 37380.0 4308.6995 -4843.5578 -2313.9805 0.88716734 -2.6057165 7.093560900000001
60712 37800.0 4211.264700000001 -5385.5286 804.95922 -1.3419077 0.070402901 7.4897743000000006
60712 38220.0 3218.8205000000003 -4782.9042 3752.1428 -3.2865233 2.730352 6.2998018
60712 38640.0 1544.0129 -3166.6668 5903.1366 -4.5360459 4.814299699999999 3.7668193000000003
60712 39060.0 -456.90335 -881.32172 6802.438099999999 -4.820158800000001 5.8716341000000005 0.43930607
60712 39480.0 -2361.2351000000003 1590.421 6259.3391 -4.0847913 5.6866091 -2.9787500000000002
60712 39900.0 -3766.0992 3725.6908 4388.8418 -2.4841267 4.2978034 -5.7680587999999995
60712 40320.0 -4373.2659 5071.7780999999995 1586.3875 -0.35451298000000003 1.995959 -7.335734
60712 40740.0 -4053.2159 5342.5785000000005 -1553.4441000000002 1.8517375999999999 -0.73078473 -7.344096899999999
60712 41160.0 -2869.2485 4474.79 -4361.844400000001 3.6651561000000004 -3.3003613 -5.8001204
60712 41580.0 -1075.703 2656.3509 -6241.037200000001 4.7060467 -5.1776124 -3.0146745
60712 42000.0 945.74102 275.07902 -6793.939200000001 4.7420759 -5.949836400000001 0.41886829000000003
60712 42420.0 2766.0348 -2163.9905 -5901.0288 3.7690533999999998 -5.454592300000001 3.7563125
60712 42840.0 3998.6205 -4143.213 -3751.0169 1.9939483 -3.7994718 6.296244300000001
60712 43260.0 4381.0789 -5241.5479000000005 -801.3560500000001 -0.20539889 -1.3363305 7.494578499999999
